OBJECT_NAME,OBJECT_ID,EPOCH,MEAN_MOTION,ECCENTRICITY,INCLINATION,RA_OF_ASC_NODE,ARG_OF_PERICENTER,MEAN_ANOMALY,EPHEMERIS_TYPE,CLASSIFICATION_TYPE,NORAD_CAT_ID,ELEMENT_SET_NO,REV_AT_EPOCH,BSTAR,MEAN_MOTION_DOT,MEAN_MOTION_DDOT
LEMUR-1,2014-033AL,2026-06-30T08:43:28.516800,14.85293818,.00490143,97.7890,330.8766,36.3968,324.0563,0,U,40044,999,64742,.21735603E-3,.1852E-4,0
LEMUR-2-GREENBERG,2017-042N,2026-06-30T11:32:45.981600,15.31726183,.00074167,97.3815,2.0477,322.6799,37.3927,0,U,42837,999,49042,.46919353E-3,.14318E-3,0
LEMUR-2-ANDIS,2017-042P,2026-06-30T11:30:25.198848,15.35365645,.00072938,97.3673,2.2767,320.1316,39.9391,0,U,42838,999,49049,.54153988E-3,.1856E-3,0
LEMUR-2-MONSON,2017-042Q,2026-06-30T10:52:48.658944,15.28384115,.00052932,97.4077,1.9720,312.4834,47.5958,0,U,42839,999,49019,.52733661E-3,.14518E-3,0
LEMUR-2-FURIAUS,2017-042R,2026-06-30T11:37:07.532544,15.30677153,.00071961,97.3765,359.9757,25.6728,334.4868,0,U,42840,999,49024,.520479E-3,.15383E-3,0
LEMUR-2-PETERG,2017-042S,2026-06-30T11:19:24.447936,15.34451650,.00027636,97.3985,6.5276,292.5448,67.5502,0,U,42841,999,49047,.70750868E-3,.23576E-3,0
LEMUR-2-DEMBITZ,2017-042T,2026-06-30T10:31:16.673088,15.30684360,.00056466,97.3820,2.9642,339.7962,20.3054,0,U,42842,999,49037,.51578244E-3,.15242E-3,0
LEMUR-2-ZACHARY,2017-042W,2026-06-30T11:34:15.401280,15.51415870,.00023287,97.3578,13.4108,325.7963,34.3139,0,U,42845,999,49126,.70698291E-3,.41719E-3,0
LEMUR-2-AMANDA-SVANTE,2021-034B,2026-06-30T04:51:32.143104,15.35068677,.00036202,97.5763,259.8367,175.2768,184.8510,0,U,48269,999,28305,.87438959E-3,.29757E-3,0
LEMUR-2-SPECIAL-K,2021-034F,2026-06-30T05:53:55.555296,15.68596958,.00053115,97.5664,269.0860,223.2451,136.8393,0,U,48273,999,28373,.15089557E-2,.174217E-2,0
LEMUR-2-EMBRIONOVIS,2023-084AQ,2026-06-30T08:19:13.613376,15.37872905,.00074759,97.6305,326.0541,265.5684,94.4706,0,U,56970,999,16970,.33192712E-3,.12286E-3,0
LEMUR-2-DEVERILL-M-T,2023-100F,2026-06-30T13:17:56.706720,15.40406179,.00051255,99.4460,224.1779,0.5874,359.5371,0,U,57391,999,16330,.66093316E-3,.26685E-3,0
LEMUR-2-BASS,2023-174D,2026-06-30T04:16:19.631136,15.43520888,.00081253,97.3854,266.0746,123.0721,237.1308,0,U,58259,999,14736,.3573184E-3,.15967E-3,0
LEMUR-2-JK0903EM1407,2023-174CJ,2026-06-30T13:18:38.955456,15.52357779,.00047833,97.3934,272.4066,80.2801,279.8991,0,U,58336,999,14780,.45414192E-3,.27641E-3,0
LEMUR-2-MJR092620,2023-174CN,2026-06-30T05:46:54.596352,15.45347625,.00065872,97.3982,271.5133,78.5814,281.6175,0,U,58340,999,14766,.37645346E-3,.179E-3,0
LEMUR-2-NIMBUS2000,2024-022A,2026-06-30T12:38:51.114336,15.40532261,.0010067,97.4090,31.6991,75.5515,284.6848,0,U,58899,999,13432,.5427406E-3,.22024E-3,0
LEMUR-2-VALHALLA,2024-022B,2026-06-30T12:38:12.518592,15.40068800,.00105465,97.4088,31.6813,71.5198,288.7193,0,U,58900,999,13432,.38395289E-3,.15309E-3,0
LEMUR-2-CAEL,2024-022E,2026-06-30T12:35:57.909984,15.41399013,.00086269,97.4073,32.6394,57.8132,302.3951,0,U,58903,999,13439,.39687751E-3,.16531E-3,0
LEMUR-2-JOHNNYTRUONG,2024-043BA,2026-06-30T10:04:55.833888,15.61456604,.0004763,97.5380,333.9520,137.2026,222.9603,0,U,59146,999,13010,.43865143E-3,.37471E-3,0
LEMUR-2-TOMATOKECHUP,2024-149D,2026-06-30T04:48:37.375776,15.36294976,.00025348,97.3804,263.2817,150.4606,209.6782,0,U,60471,999,10416,.26882668E-3,.9433E-4,0
LEMUR-2-STELLA,2024-149BT,2026-06-30T04:27:36.969120,15.12073818,.00011286,97.6739,263.6990,99.0249,261.1108,0,U,60533,999,10246,.61049283E-3,.10444E-3,0
LEMUR-2-MARHISYAM,2024-149BW,2026-06-30T04:06:10.356480,15.11506769,.00032004,97.6888,264.1465,92.2780,267.8817,0,U,60536,999,10244,.55781128E-3,.9387E-4,0
LEMUR-2-AHMED-ASRAR,2024-149DN,2026-06-30T04:37:10.920000,15.12994019,.00006621,97.7006,266.3111,344.4474,15.6736,0,U,60576,999,10253,.63019E-3,.11065E-3,0
LEMUR-2-LLOYD,2024-149DP,2026-06-30T05:38:27.332448,15.09485575,.00050741,97.6753,262.3721,108.3564,251.8217,0,U,60577,999,10236,.6318452E-3,.10067E-3,0
LEMUR-2-SQUIRRELCOMM,2024-149DQ,2026-06-30T12:47:49.167744,15.07296944,.00054313,97.6713,262.4029,22.6641,337.4825,0,U,60578,999,10241,.35058625E-3,.523E-4,0
LEMUR-2-SIERRINI,2024-149DR,2026-06-30T11:05:13.216128,15.11217721,.00064047,97.6843,264.1141,129.3062,230.8736,0,U,60579,999,10246,.6015458E-3,.10052E-3,0
LEMUR-2-WILSON,2025-009CP,2026-06-30T05:05:01.547808,14.95217915,.00031127,97.7023,259.4479,20.1191,340.0152,0,U,62694,999,7930,.20204686E-3,.2165E-4,0
LEMUR-2-STAR-FOX,2025-009CR,2026-06-30T05:04:54.695424,15.02664943,.00041967,97.6955,262.7274,85.5609,274.6095,0,U,62696,999,7951,.50156764E-3,.6632E-4,0
LEMUR-2-ARIANNA,2025-009CU,2026-06-30T05:02:41.404416,15.02661797,.00045405,97.6896,262.4902,90.1809,269.9936,0,U,62699,999,7951,.49784322E-3,.6582E-4,0
LEMUR-2-ALISIA,2025-009DB,2026-06-30T04:27:22.146336,15.02950524,.00029289,97.6942,263.2657,175.6264,184.4987,0,U,62706,999,10211,.59008607E-3,.7873E-4,0
