LEMUR-1                 
1 40044U 14033AL  26181.36352450  .00001852  00000+0  21736-3 0  9996
2 40044  97.7890 330.8766 0049014  36.3968 324.0563 14.85293818647425
LEMUR-2-GREENBERG       
1 42837U 17042N   26181.48108775  .00014318  00000+0  46919-3 0  9994
2 42837  97.3815   2.0477 0007416 322.6799  37.3927 15.31726183490422
LEMUR-2-ANDIS           
1 42838U 17042P   26181.47945832  .00018560  00000+0  54154-3 0  9990
2 42838  97.3673   2.2767 0007293 320.1316  39.9391 15.35365645490496
LEMUR-2-MONSON          
1 42839U 17042Q   26181.45334096  .00014518  00000+0  52734-3 0  9994
2 42839  97.4077   1.9720 0005293 312.4834  47.5958 15.28384115490194
LEMUR-2-FURIAUS         
1 42840U 17042R   26181.48411496  .00015383  00000+0  52048-3 0  9998
2 42840  97.3765 359.9757 0007196  25.6728 334.4868 15.30677153490248
LEMUR-2-PETERG          
1 42841U 17042S   26181.47181074  .00023576  00000+0  70751-3 0  9998
2 42841  97.3985   6.5276 0002763 292.5448  67.5502 15.34451650490473
LEMUR-2-DEMBITZ         
1 42842U 17042T   26181.43838742  .00015242  00000+0  51578-3 0  9993
2 42842  97.3820   2.9642 0005646 339.7962  20.3054 15.30684360490377
LEMUR-2-ZACHARY         
1 42845U 17042W   26181.48212270  .00041719  00000+0  70698-3 0  9995
2 42845  97.3578  13.4108 0002328 325.7963  34.3139 15.51415870491263
LEMUR-2-AMANDA-SVANTE   
1 48269U 21034B   26181.20245536  .00029757  00000+0  87439-3 0  9997
2 48269  97.5763 259.8367 0003620 175.2768 184.8510 15.35068677283058
LEMUR-2-SPECIAL-K       
1 48273U 21034F   26181.24578189  .00174217  00000+0  15090-2 0  9994
2 48273  97.5664 269.0860 0005311 223.2451 136.8393 15.68596958283731
LEMUR-2-EMBRIONOVIS     
1 56970U 23084AQ  26181.34668534  .00012286  00000+0  33193-3 0  9991
2 56970  97.6305 326.0541 0007475 265.5684  94.4706 15.37872905169709
LEMUR-2-DEVERILL-M-T    
1 57391U 23100F   26181.55412855  .00026685  00000+0  66093-3 0  9997
2 57391  99.4460 224.1779 0005125   0.5874 359.5371 15.40406179163301
LEMUR-2-BASS            
1 58259U 23174D   26181.17800499  .00015967  00000+0  35732-3 0  9992
2 58259  97.3854 266.0746 0008125 123.0721 237.1308 15.43520888147369
LEMUR-2-JK0903EM1407    
1 58336U 23174CJ  26181.55461754  .00027641  00000+0  45414-3 0  9997
2 58336  97.3934 272.4066 0004783  80.2801 279.8991 15.52357779147806
LEMUR-2-MJR092620       
1 58340U 23174CN  26181.24090968  .00017900  00000+0  37645-3 0  9997
2 58340  97.3982 271.5133 0006587  78.5814 281.6175 15.45347625147667
LEMUR-2-NIMBUS2000      
1 58899U 24022A   26181.52698049  .00022024  00000+0  54274-3 0  9994
2 58899  97.4090  31.6991 0010067  75.5515 284.6848 15.40532261134323
LEMUR-2-VALHALLA        
1 58900U 24022B   26181.52653378  .00015309  00000+0  38395-3 0  9997
2 58900  97.4088  31.6813 0010546  71.5198 288.7193 15.40068800134322
LEMUR-2-CAEL            
1 58903U 24022E   26181.52497581  .00016531  00000+0  39688-3 0  9996
2 58903  97.4073  32.6394 0008626  57.8132 302.3951 15.41399013134391
LEMUR-2-JOHNNYTRUONG    
1 59146U 24043BA  26181.42009067  .00037471  00000+0  43865-3 0  9994
2 59146  97.5380 333.9520 0004763 137.2026 222.9603 15.61456604130102
LEMUR-2-TOMATOKECHUP    
1 60471U 24149D   26181.20043259  .00009433  00000+0  26883-3 0  9999
2 60471  97.3804 263.2817 0002534 150.4606 209.6782 15.36294976104164
LEMUR-2-STELLA          
1 60533U 24149BT  26181.18584455  .00010444  00000+0  61049-3 0  9990
2 60533  97.6739 263.6990 0001128  99.0249 261.1108 15.12073818102468
LEMUR-2-MARHISYAM       
1 60536U 24149BW  26181.17095320  .00009387  00000+0  55781-3 0  9990
2 60536  97.6888 264.1465 0003200  92.2780 267.8817 15.11506769102440
LEMUR-2-AHMED-ASRAR     
1 60576U 24149DN  26181.19248750  .00011065  00000+0  63019-3 0  9992
2 60576  97.7006 266.3111 0000662 344.4474  15.6736 15.12994019102539
LEMUR-2-LLOYD           
1 60577U 24149DP  26181.23503857  .00010067  00000+0  63185-3 0  9995
2 60577  97.6753 262.3721 0005074 108.3564 251.8217 15.09485575102367
LEMUR-2-SQUIRRELCOMM    
1 60578U 24149DQ  26181.53320796  .00005230  00000+0  35059-3 0  9993
2 60578  97.6713 262.4029 0005431  22.6641 337.4825 15.07296944102417
LEMUR-2-SIERRINI        
1 60579U 24149DR  26181.46195852  .00010052  00000+0  60155-3 0  9992
2 60579  97.6843 264.1141 0006404 129.3062 230.8736 15.11217721102462
LEMUR-2-WILSON          
1 62694U 25009CP  26181.21182347  .00002165  00000+0  20205-3 0  9994
2 62694  97.7023 259.4479 0003112  20.1191 340.0152 14.95217915 79306
LEMUR-2-STAR-FOX        
1 62696U 25009CR  26181.21174416  .00006632  00000+0  50157-3 0  9996
2 62696  97.6955 262.7274 0004196  85.5609 274.6095 15.02664943 79510
LEMUR-2-ARIANNA         
1 62699U 25009CU  26181.21020144  .00006582  00000+0  49784-3 0  9995
2 62699  97.6896 262.4902 0004540  90.1809 269.9936 15.02661797 79514
LEMUR-2-ALISIA          
1 62706U 25009DB  26181.18567299  .00007873  00000+0  59009-3 0  9992
2 62706  97.6942 263.2657 0002928 175.6264 184.4987 15.02950524102112
